OBJECT_NAME,OBJECT_ID,EPOCH,MEAN_MOTION,ECCENTRICITY,INCLINATION,RA_OF_ASC_NODE,ARG_OF_PERICENTER,MEAN_ANOMALY,EPHEMERIS_TYPE,CLASSIFICATION_TYPE,NORAD_CAT_ID,ELEMENT_SET_NO,REV_AT_EPOCH,BSTAR,MEAN_MOTION_DOT,MEAN_MOTION_DDOT
ONEWEB-0526,2022-138AH,2026-06-27T21:14:03.481728,13.19726267,.00019236,87.9188,302.8350,104.4076,255.7270,0,U,54144,999,17821,-.32560516E-3,-.117E-5,0
ONEWEB-0529,2022-138AJ,2026-06-27T21:18:37.608192,13.19724924,.0001817,87.9180,302.8426,106.6806,253.4526,0,U,54145,999,17823,-.28933612E-3,-.103E-5,0
ONEWEB-0531,2022-138AK,2026-06-27T18:19:01.081344,13.20785408,.00020741,87.9202,272.3274,101.2641,258.8725,0,U,54146,999,18070,.49944927E-2,.2045E-4,0
ONEWEB-0535,2022-138AL,2026-06-27T20:17:12.135840,13.19725492,.00021133,87.9188,302.8360,92.6302,267.5073,0,U,54147,999,17824,-.12668195E-3,-.38E-6,0
ONEWEB-0536,2022-138AM,2026-06-27T19:48:43.970688,13.20771709,.00030515,87.9184,272.3367,97.1350,263.0131,0,U,54148,999,18070,.40623121E-4,.3E-6,0
ONEWEB-0527,2022-166A,2026-06-27T22:12:46.217952,13.21823387,.000203,87.9247,241.8607,99.9804,260.1559,0,U,54642,999,17295,.18815051E-3,.91E-6,0
ONEWEB-0528,2022-166B,2026-06-27T22:13:58.201248,13.21824211,.00019753,87.9248,241.8629,104.8256,255.3096,0,U,54643,999,17296,.92454443E-4,.51E-6,0
ONEWEB-0539,2022-166C,2026-06-27T21:19:27.651072,13.21827594,.00018932,87.9254,241.8426,93.2601,266.8750,0,U,54644,999,17295,.11715701E-3,.61E-6,0
ONEWEB-0540,2022-166D,2026-06-27T21:29:20.499360,13.21827512,.0002024,87.9246,241.8709,94.7940,265.3425,0,U,54645,999,17294,.10597653E-3,.57E-6,0
ONEWEB-0542,2022-166E,2026-06-27T21:34:00.400800,13.21824515,.00019014,87.9257,241.8396,90.8786,269.2566,0,U,54646,999,17295,-.99346176E-4,-.28E-6,0
ONEWEB-0545,2022-166F,2026-06-27T22:32:07.752768,13.21828100,.00018833,87.9247,241.8425,82.8784,277.2565,0,U,54647,999,17292,-.54039967E-4,-.9E-7,0
ONEWEB-0580,2022-166G,2026-06-27T21:55:45.815808,13.21827992,.00020679,87.9246,241.8473,86.4742,273.6629,0,U,54648,999,17296,.86363865E-4,.49E-6,0
ONEWEB-0582,2022-166H,2026-06-27T21:07:21.196416,13.21827080,.00019541,87.9247,241.8466,85.1908,274.9449,0,U,54649,999,17293,.18109045E-4,.2E-6,0
ONEWEB-0583,2022-166J,2026-06-27T21:24:19.016064,13.21825971,.00020266,87.9243,241.8673,94.9822,265.1544,0,U,54650,999,17294,.38466647E-3,.172E-5,0
ONEWEB-0584,2022-166K,2026-06-27T21:53:21.571872,13.21832398,.00021567,87.9242,241.8488,95.3400,264.7980,0,U,54651,999,17293,.14945267E-2,.63E-5,0
ONEWEB-0585,2022-166L,2026-06-27T22:27:17.481600,13.21827449,.00020863,87.9250,241.8316,102.4187,257.7181,0,U,54652,999,17294,.21321682E-3,.101E-5,0
ONEWEB-0586,2022-166M,2026-06-27T20:57:40.493376,13.21825337,.00019445,87.9247,241.8693,94.0750,266.0606,0,U,54653,999,17293,-.9640794E-5,.9E-7,0
ONEWEB-0587,2022-166N,2026-06-27T21:12:12.618432,13.21824658,.00022344,87.9258,241.8418,105.8968,254.2413,0,U,54654,999,17309,.36132141E-4,.28E-6,0
ONEWEB-0589,2022-166P,2026-06-27T20:52:49.866240,13.21825117,.00020316,87.9245,241.8554,73.0878,287.0478,0,U,54655,999,17295,-.16958211E-3,-.57E-6,0
ONEWEB-0590,2022-166Q,2026-06-27T21:28:56.872416,13.21826404,.00024903,87.9252,241.8417,93.9469,266.1950,0,U,54656,999,17294,-.29318933E-3,-.108E-5,0
ONEWEB-0591,2022-166R,2026-06-27T21:46:07.195008,13.21826844,.0002114,87.9245,241.8531,96.6626,263.4748,0,U,54657,999,17297,.5707263E-4,.37E-6,0
ONEWEB-0592,2022-166S,2026-06-27T21:50:55.698432,13.21834278,.00020401,87.9255,241.8315,96.8801,263.2565,0,U,54658,999,17285,-.30283849E-2,-.1238E-4,0
ONEWEB-0593,2022-166T,2026-06-27T15:06:26.074080,13.21825536,.00018956,87.9248,241.8983,96.0073,264.1277,0,U,54659,999,17292,.8512243E-5,.17E-6,0
ONEWEB-0594,2022-166U,2026-06-27T21:02:29.797728,13.21828545,.00020211,87.9245,241.8653,102.8120,257.3240,0,U,54660,999,17297,.25481652E-3,.118E-5,0
ONEWEB-0595,2022-166V,2026-06-27T22:17:36.183264,13.21824206,.0002208,87.9255,241.8364,103.1084,257.0296,0,U,54661,999,17295,.85511584E-4,.48E-6,0
ONEWEB-0596,2022-166W,2026-06-27T21:41:15.832608,13.21826998,.00021566,87.9246,241.8523,100.0003,260.1374,0,U,54662,999,17295,.2904224E-4,.25E-6,0
ONEWEB-0597,2022-166X,2026-06-27T21:14:37.167360,13.21827063,.00020017,87.9245,241.8589,94.7378,265.3984,0,U,54663,999,17295,-.4672478E-5,.11E-6,0
ONEWEB-0600,2022-166Y,2026-06-27T20:47:59.128512,13.21825029,.00018296,87.9245,241.8539,98.6175,261.5167,0,U,54664,999,17292,-.86898699E-4,-.23E-6,0
ONEWEB-0601,2022-166Z,2026-06-27T22:24:50.925600,13.21821618,.00019564,87.9246,241.8566,90.9044,269.2314,0,U,54665,999,17312,.12709602E-2,.538E-5,0
ONEWEB-0602,2022-166AA,2026-06-27T21:35:12.183648,13.21826924,.0001783,87.9245,241.8694,98.9664,261.1672,0,U,54666,999,17296,.21516232E-3,.102E-5,0
ONEWEB-0603,2022-166AB,2026-06-27T21:43:41.540160,13.21826752,.00019801,87.9254,241.8262,96.1113,264.0247,0,U,54667,999,17289,-.28509253E-4,.1E-7,0
ONEWEB-0604,2022-166AC,2026-06-27T21:26:42.134208,13.21828219,.00020906,87.9256,241.8443,100.1469,259.9901,0,U,54668,999,17285,.10807588E-3,.58E-6,0
ONEWEB-0605,2022-166AD,2026-06-27T21:17:02.809248,13.21827343,.00023566,87.9247,241.8582,83.3299,276.8103,0,U,54669,999,17292,.90290074E-4,.5E-6,0
ONEWEB-0606,2022-166AE,2026-06-27T16:21:30.761856,13.21824423,.00022328,87.9240,241.9104,101.1039,259.0346,0,U,54670,999,17295,-.17554184E-2,-.712E-5,0
ONEWEB-0607,2022-166AF,2026-06-27T21:00:05.819904,13.21825283,.0001929,87.9253,241.8445,95.4623,264.6731,0,U,54671,999,17295,-.71992124E-4,-.17E-6,0
ONEWEB-0608,2022-166AG,2026-06-27T21:09:44.361216,13.21828456,.00020503,87.9259,241.8399,82.1942,277.9425,0,U,54672,999,17296,.147167E-4,.19E-6,0
ONEWEB-0610,2022-166AH,2026-06-27T22:29:43.273824,13.21824379,.00017677,87.9247,241.8424,80.6306,279.5027,0,U,54673,999,17287,-.5976282E-5,.11E-6,0
ONEWEB-0611,2022-166AJ,2026-06-27T22:20:00.197376,13.21825332,.00021237,87.9247,241.8396,101.2398,258.8975,0,U,54674,999,17286,.17892377E-3,.87E-6,0
ONEWEB-0612,2022-166AK,2026-06-27T20:50:24.702144,13.21825240,.00020232,87.9259,241.8486,93.2706,266.8660,0,U,54675,999,17284,-.2328935E-3,-.83E-6,0
ONEWEB-0615,2022-166AL,2026-06-27T22:10:20.144064,13.21826151,.00019977,87.9253,241.8514,105.4611,254.6743,0,U,54676,999,17286,.10949346E-3,.58E-6,0
ONEWEB-0655,2022-166AM,2026-06-27T21:36:25.369632,13.21821899,.00019371,87.9250,241.8567,95.2377,264.8978,0,U,54677,999,17285,.24017152E-2,.1005E-4,0
ONEWEB-0659,2022-166AN,2026-06-27T22:00:39.541248,13.21832525,.00023455,87.9246,241.8535,96.4323,263.7078,0,U,54678,999,17294,.96909064E-2,.4018E-4,0
ONEWEB-0685,2022-166AP,2026-06-27T22:00:31.367808,13.21847690,.00019051,87.9243,241.8453,87.8619,272.2734,0,U,54679,999,17283,-.13451635E-3,-.43E-6,0
ONEWEB-0712,2022-166AQ,2026-06-27T20:26:17.140128,13.16594765,.00016136,87.9091,226.6571,99.5229,260.6085,0,U,54680,999,17346,-.14129715E-3,-.41E-6,0
ONEWEB-0714,2022-166AR,2026-06-27T16:40:54.542208,13.21824823,.00017883,87.9247,241.8873,102.8640,257.2694,0,U,54681,999,17292,-.13914118E-3,-.44E-6,0
ONEWEB-0532,2023-004A,2026-06-27T21:23:34.075104,13.17647793,.00021807,87.9131,3.7345,85.5601,274.5780,0,U,55140,999,16899,.2552789E-5,.14E-6,0
ONEWEB-0533,2023-004B,2026-06-27T21:38:43.238112,13.12444149,.00017282,87.8947,348.5393,87.2654,272.8672,0,U,55141,999,16946,-.64656496E-3,-.22E-5,0
ONEWEB-0541,2023-004C,2026-06-27T22:33:48.587616,13.11415174,.00019931,87.8890,18.9179,90.9567,269.1789,0,U,55142,999,16735,.11542853E-2,.422E-5,0
ONEWEB-0543,2023-004D,2026-06-27T20:41:56.760000,13.18685976,.00016462,87.9168,333.3450,98.8988,261.2331,0,U,55143,999,17110,.7147928E-5,.16E-6,0
ONEWEB-0544,2023-004E,2026-06-27T20:32:13.907328,13.18686468,.00018453,87.9169,333.3460,101.6019,258.5321,0,U,55144,999,17110,-.1823085E-5,.12E-6,0
ONEWEB-0560,2023-004F,2026-06-27T20:22:30.248544,13.18687805,.00017814,87.9169,333.3367,104.2938,255.8393,0,U,55145,999,17111,.40997664E-4,.29E-6,0
ONEWEB-0565,2023-004G,2026-06-27T20:12:48.900096,13.18686401,.0002225,87.9160,333.3649,101.4218,258.7164,0,U,55146,999,17110,.74268897E-4,.42E-6,0
ONEWEB-0567,2023-004H,2026-06-27T20:03:06.082848,13.18686906,.00020849,87.9168,333.3514,103.6156,256.5209,0,U,55147,999,17110,.81671552E-4,.45E-6,0
ONEWEB-0569,2023-004J,2026-06-27T21:38:11.405760,13.13472152,.00020987,87.8974,318.0871,124.2455,235.8873,0,U,55148,999,17158,-.27775842E-3,-.89E-6,0
ONEWEB-0570,2023-004K,2026-06-27T19:50:57.130368,13.18686156,.00022445,87.9168,333.3508,90.9478,269.1911,0,U,55149,999,17109,.6516827E-4,.39E-6,0
ONEWEB-0571,2023-004L,2026-06-27T21:30:30.139488,13.18685471,.00027546,87.9168,333.3365,117.8707,242.2705,0,U,55150,999,17111,.3775649E-5,.14E-6,0
ONEWEB-0572,2023-004M,2026-06-27T18:29:50.160480,13.17649522,.00020414,87.9131,3.7594,93.5267,266.6098,0,U,55151,999,16887,.9552264E-4,.5E-6,0
ONEWEB-0573,2023-004N,2026-06-27T21:20:47.044032,13.18686907,.00025655,87.9171,333.3394,109.2341,250.9069,0,U,55152,999,17110,-.3287054E-4,0,0
ONEWEB-0588,2023-004P,2026-06-27T21:11:04.971552,13.18686101,.00023465,87.9168,333.3408,91.9124,268.2277,0,U,55153,999,17110,-.47369937E-4,-.6E-7,0
ONEWEB-0598,2023-004Q,2026-06-27T20:12:12.497184,13.11418425,.00020949,87.8882,18.9470,107.9296,252.2061,0,U,55154,999,16729,.12236425E-2,.446E-5,0
ONEWEB-0599,2023-004R,2026-06-27T23:01:59.598912,13.17649641,.00016881,87.9131,3.7206,95.3156,264.8168,0,U,55155,999,16890,.12679844E-3,.62E-6,0
ONEWEB-0614,2023-004S,2026-06-27T20:04:52.535424,13.11418831,.00019437,87.8879,18.9568,81.5851,278.5497,0,U,55156,999,16723,.4733122E-3,.18E-5,0
ONEWEB-0616,2023-004T,2026-06-27T18:34:42.095712,13.17649880,.00010244,87.9133,3.7612,106.9095,253.2149,0,U,55157,999,16909,.15155033E-3,.72E-6,0
ONEWEB-0617,2023-004U,2026-06-27T19:47:47.134176,13.11418628,.00022042,87.8885,18.9509,81.1389,278.9989,0,U,55158,999,16725,-.73046315E-3,-.246E-5,0
ONEWEB-0618,2023-004V,2026-06-27T23:17:18.238272,15.13220785,.00094862,86.9092,173.2564,248.2116,111.8115,0,U,55159,999,18389,.21089141E-3,.378E-4,0
